JILIN-1 GAOFEN 3D06     
1 52391U 22046D   26068.85604986  .00190664  00000+0  11303-2 0  9997
2 52391  97.4988 185.9829 0002629 243.9141 116.1854 15.77506946214948
STARLINK-36613          
1 67578U 26016T   26068.72247230  .00224945  00000+0  14689-2 0  9992
2 67578  97.2844 129.2902 0001637  76.8046 283.3402 15.75200455  6813
