[{"OBJECT_NAME":"JILIN-1 GAOFEN 3D06","OBJECT_ID":"2022-046D","EPOCH":"2026-03-09T20:32:42.708768","MEAN_MOTION":15.77506946,"ECCENTRICITY":0.00026293,"INCLINATION":97.4988,"RA_OF_ASC_NODE":185.9829,"ARG_OF_PERICENTER":243.9141,"MEAN_ANOMALY":116.1854,"EPHEMERIS_TYPE":0,"CLASSIFICATION_TYPE":"U","NORAD_CAT_ID":52391,"ELEMENT_SET_NO":999,"REV_AT_EPOCH":21494,"BSTAR":0.0011303209,"MEAN_MOTION_DOT":0.00190664,"MEAN_MOTION_DDOT":0},{"OBJECT_NAME":"STARLINK-36613","OBJECT_ID":"2026-016T","EPOCH":"2026-03-09T17:20:21.607584","MEAN_MOTION":15.75200455,"ECCENTRICITY":0.00016368,"INCLINATION":97.2844,"RA_OF_ASC_NODE":129.2902,"ARG_OF_PERICENTER":76.8046,"MEAN_ANOMALY":283.3402,"EPHEMERIS_TYPE":0,"CLASSIFICATION_TYPE":"U","NORAD_CAT_ID":67578,"ELEMENT_SET_NO":999,"REV_AT_EPOCH":681,"BSTAR":0.0014689462,"MEAN_MOTION_DOT":0.00224945,"MEAN_MOTION_DDOT":0}]
